NORAD_CAT_ID,OBJECT_NAME,OBJECT_TYPE,EPOCH,MEAN_MOTION,ECCENTRICITY,INCLINATION,RA_OF_ASC_NODE,ARG_OF_PERICENTER,MEAN_ANOMALY,BSTAR,MEAN_MOTION_DOT,MEAN_MOTION_DDOT,TLE_LINE0,TLE_LINE1,TLE_LINE2,SEMIMAJOR_AXIS,PERIOD,APOGEE,PERIGEE,DECAYED
52288.0,STARLINK-3776,PAYLOAD,2022-08-14 14:00:01,15.08839998,0.0001821999999999,53.2151,188.9868,58.6734,83.5812,-0.0015585,-0.00025006,0.0,0 STARLINK-3776,1 52288U 22041AD  22226.58334491 -.00025006  00000-0 -15585-2 0  9996,2 52288  53.2151 188.9868 0001822  58.6734  83.5812 15.08839998  1309,6917.88,95.438,541.006,538.485,0.0
52288.0,STARLINK-3776,PAYLOAD,2022-08-14 22:00:00,15.08835178,0.0001844999999999,53.2154,187.4898,64.1432,89.6919,0.00076182,0.00011856,0.0,0 STARLINK-3776,1 52288U 22041AD  22226.91667824  .00011856  00000-0  76182-3 0  9999,2 52288  53.2154 187.4898 0001845  64.1432  89.6919 15.08835178  1302,6917.895,95.438,541.036,538.484,0.0
52288.0,STARLINK-3776,PAYLOAD,2022-08-15 14:00:01,15.08855276,0.0001901,53.2155,184.4976,59.6211,117.3957,-0.001425,-0.00022905,0.0,0 STARLINK-3776,1 52288U 22041AD  22227.58334491 -.00022905  00000-0 -14250-2 0  9990,2 52288  53.2155 184.4976 0001901  59.6211 117.3957 15.08855276  1306,6917.834,95.437,541.014,538.384,0.0
52288.0,STARLINK-3776,PAYLOAD,2022-08-15 16:00:00,15.08834177,0.0001872,53.2157,184.1231,61.0498,208.8749,0.0012716,0.00020004,0.0,0 STARLINK-3776,1 52288U 22041AD  22227.66667824  .00020004  00000-0  12716-2 0  9999,2 52288  53.2157 184.1231 0001872  61.0498 208.8749 15.08834177 19165,6917.898,95.438,541.058,538.4680000000002,0.0
52288.0,STARLINK-3776,PAYLOAD,2022-08-15 22:00:00,15.08857557,0.0001916999999999,53.2158,183.0008,64.2412,124.3749,-4.3006e-06,-3.57e-06,0.0,0 STARLINK-3776,1 52288U 22041AD  22227.91667824 -.00000357  00000-0 -43006-5 0  9997,2 52288  53.2158 183.0008 0001917  64.2412 124.3749 15.08857557  1303,6917.8269999999975,95.436,541.018,538.366,0.0
52288.0,STARLINK-3776,PAYLOAD,2022-08-16 14:00:01,15.08846997,0.0001865999999999,53.2159,180.0083,59.3829,152.4469,-0.0010488,-0.00016944,0.0,0 STARLINK-3776,1 52288U 22041AD  22228.58334491 -.00016944  00000-0 -10488-2 0  9996,2 52288  53.2159 180.0083 0001866  59.3829 152.4469 15.08846997  1301,6917.859,95.437,541.015,538.433,0.0
52288.0,STARLINK-3776,PAYLOAD,2022-08-16 22:00:00,15.08851144,0.0001885999999999,53.2161,178.5118,63.8039,159.6152,0.00012352,1.679e-05,0.0,0 STARLINK-3776,1 52288U 22041AD  22228.91667824  .00001679  00000-0  12352-3 0  9992,2 52288  53.2161 178.5118 0001886  63.8039 159.6152 15.08851144  1308,6917.846,95.437,541.016,538.4069999999998,0.0
52288.0,STARLINK-3776,PAYLOAD,2022-08-17 06:00:02,15.08842788,0.0001996999999999,53.216,177.0169,56.8278,178.2662,0.00012793,1.749e-05,0.0,0 STARLINK-3776,1 52288U 22041AD  22229.25002315  .00001749  00000-0  12793-3 0  9995,2 52288  53.2160 177.0169 0001997  56.8278 178.2662 15.08842788 19404,6917.871999999999,95.437,541.118,538.355,0.0
52288.0,STARLINK-3776,PAYLOAD,2022-08-17 16:00:00,15.0881173,0.0001768,53.216,175.1447,61.4208,278.1186,0.0024644,0.00039121,0.0,0 STARLINK-3776,1 52288U 22041AD  22229.66667824  .00039121  00000-0  24644-2 0  9994,2 52288  53.2160 175.1447 0001768  61.4208 278.1186 15.08811730  1307,6917.967,95.439,541.055,538.609,0.0
52288.0,STARLINK-3776,PAYLOAD,2022-08-18 08:00:01,15.08843996,0.0001871,53.2156,172.1536,55.6346,307.0911,0.0019942999999999,0.00031598,0.0,0 STARLINK-3776,1 52288U 22041AD  22230.33334491  .00031598  00000-0  19943-2 0  9997,2 52288  53.2156 172.1536 0001871  55.6346 307.0911 15.08843996 19565,6917.868,95.437,541.028,538.439,0.0
52288.0,STARLINK-3776,PAYLOAD,2022-08-18 14:00:01,15.08866724,0.0001719,53.2158,171.0299,60.9517,220.4841,-0.0024313,-0.00038803,0.0,0 STARLINK-3776,1 52288U 22041AD  22230.58334491 -.00038803  00000-0 -24313-2 0  9999,2 52288  53.2158 171.0299 0001719  60.9517 220.4841 15.08866724  1308,6917.799,95.436,540.8530000000002,538.475,0.0
52288.0,STARLINK-3776,PAYLOAD,2022-08-18 22:00:00,15.08838638,0.0001933,53.2176,169.5322,57.2693,235.6961,-0.00014748,-2.635e-05,0.0,0 STARLINK-3776,1 52288U 22041AD  22230.91667824 -.00002635  00000-0 -14748-3 0  9991,2 52288  53.2176 169.5322 0001933  57.2693 235.6961 15.08838638  1303,6917.885,95.438,541.087,538.4119999999998,0.0
52288.0,STARLINK-3776,PAYLOAD,2022-08-19 14:00:01,15.08845594,0.0001593,53.2153,166.5408,61.285,254.9331,-0.0011093,-0.00017902,0.0,0 STARLINK-3776,1 52288U 22041AD  22231.58334491 -.00017902  00000-0 -11093-2 0  9998,2 52288  53.2153 166.5408 0001593  61.2850 254.9331 15.08845594  1306,6917.863,95.437,540.83,538.626,0.0
52288.0,STARLINK-3776,PAYLOAD,2022-08-19 16:00:00,15.08812934,0.0001525,53.2152,166.1664,63.2587,345.8695,0.0029674,0.0004721999999999,0.0,0 STARLINK-3776,1 52288U 22041AD  22231.66667824  .00047220  00000-0  29674-2 0  9994,2 52288  53.2152 166.1664 0001525  63.2587 345.8695 15.08812934 19774,6917.9630000000025,95.439,540.883,538.773,0.0
52288.0,STARLINK-3776,PAYLOAD,2022-08-19 22:00:00,15.08858689,0.0001551999999999,53.2154,165.0448,62.778,265.0204,-0.0025061999999999,-0.00039974,0.0,0 STARLINK-3776,1 52288U 22041AD  22231.91667824 -.00039974  00000-0 -25062-2 0  9998,2 52288  53.2154 165.0448 0001552  62.7780 265.0204 15.08858689  1309,6917.823,95.436,540.762,538.615,0.0
52288.0,STARLINK-3776,PAYLOAD,2022-08-20 08:00:01,15.08808777,0.0001602,53.2147,163.1754,53.1948,19.0994,0.0014426999999999,0.00022728,0.0,0 STARLINK-3776,1 52288U 22041AD  22232.33334491  .00022728  00000-0  14427-2 0  9996,2 52288  53.2147 163.1754 0001602  53.1948  19.0994 15.08808777 19873,6917.976,95.44,540.9490000000002,538.7330000000002,0.0
52288.0,STARLINK-3776,PAYLOAD,2022-08-20 14:00:01,15.08817363,0.0001489,53.2149,162.0517,61.1757,289.8058,0.0013892,0.00021877,0.0,0 STARLINK-3776,1 52288U 22041AD  22232.58334491  .00021877  00000-0  13892-2 0  9992,2 52288  53.2149 162.0517 0001489  61.1757 289.8058 15.08817363  1308,6917.95,95.439,540.845,538.784,0.0
52288.0,STARLINK-3776,PAYLOAD,2022-08-20 22:00:00,15.08847627,0.0001549,53.215,160.5558,62.3841,300.1619,-0.0011592,-0.00018693,0.0,0 STARLINK-3776,1 52288U 22041AD  22232.91667824 -.00018693  00000-0 -11592-2 0  9997,2 52288  53.2150 160.5558 0001549  62.3841 300.1619 15.08847627  1308,6917.857,95.437,540.794,538.651,0.0
52288.0,STARLINK-3776,PAYLOAD,2022-08-21 06:00:00,15.08812423,0.0001669,53.2147,159.0607,55.2441,318.8959,0.002887,0.00045924,0.0,0 STARLINK-3776,1 52288U 22041AD  22233.25001157  .00045924  00000-0  28870-2 0  9998,2 52288  53.2147 159.0607 0001669  55.2441 318.8959 15.08812423 20009,6917.965,95.439,540.984,538.675,0.0
52288.0,STARLINK-3776,PAYLOAD,2022-08-21 14:00:01,15.08838503,0.0001511,53.2148,157.5625,61.0814,324.6503,-0.00011389,-2.1e-05,0.0,0 STARLINK-3776,1 52288U 22041AD  22233.58334491 -.00002100  00000-0 -11389-3 0  9993,2 52288  53.2148 157.5625 0001511  61.0814 324.6503 15.08838503  1307,6917.885,95.438,540.795,538.705,0.0
52288.0,STARLINK-3776,PAYLOAD,2022-08-21 22:00:00,15.08843625,0.0001554,53.2149,156.0668,60.8149,336.5051,-0.0021701999999999,-0.00034664,0.0,0 STARLINK-3776,1 52288U 22041AD  22233.91667824 -.00034664  00000-0 -21702-2 0  9998,2 52288  53.2149 156.0668 0001554  60.8149 336.5051 15.08843625 20115,6917.869000000002,95.437,540.809,538.659,0.0
52288.0,STARLINK-3776,PAYLOAD,2022-08-22 12:00:00,15.08835976,0.0001575999999999,53.2151,153.4478,57.5555,270.0279,-0.0010254,-0.00016568,0.0,0 STARLINK-3776,1 52288U 22041AD  22234.50001157 -.00016568  00000-0 -10254-2 0  9998,2 52288  53.2151 153.4478 0001576  57.5555 270.0279 15.08835976  1300,6917.893,95.438,540.8480000000002,538.6669999999998,0.0
52288.0,STARLINK-3776,PAYLOAD,2022-08-22 22:00:00,15.08853099,0.0001655,53.2153,151.5777,60.0835,11.9756,-0.0017108,-0.00027422,0.0,0 STARLINK-3776,1 52288U 22041AD  22234.91667824 -.00027422  00000-0 -17108-2 0  9998,2 52288  53.2153 151.5777 0001655  60.0835  11.9756 15.08853099  1309,6917.84,95.437,540.85,538.56,0.0
52288.0,STARLINK-3776,PAYLOAD,2022-08-23 06:00:00,15.0882198,0.0001748,53.2154,150.0824,53.3598,30.3,0.0025698,0.00040828,0.0,0 STARLINK-3776,1 52288U 22041AD  22235.25001157  .00040828  00000-0  25698-2 0  9993,2 52288  53.2154 150.0824 0001748  53.3598  30.3000 15.08821980 20314,6917.935,95.439,541.01,538.591,0.0
52288.0,STARLINK-3776,PAYLOAD,2022-08-23 14:00:01,15.08835885,0.0001588999999999,53.2158,148.5843,59.5303,35.7278,0.00029515,4.412e-05,0.0,0 STARLINK-3776,1 52288U 22041AD  22235.58334491  .00004412  00000-0  29515-3 0  9991,2 52288  53.2158 148.5843 0001589  59.5303  35.7278 15.08835885  1309,6917.893,95.438,540.857,538.659,0.0
52288.0,STARLINK-3776,PAYLOAD,2022-08-23 22:00:01,15.08844156,0.0001659,53.216,147.0886,58.4207,48.4923,-0.0023594,-0.00037646,0.0,0 STARLINK-3776,1 52288U 22041AD  22235.91668981 -.00037646  00000-0 -23594-2 0  9999,2 52288  53.2160 147.0886 0001659  58.4207  48.4923 15.08844156  1301,6917.868,95.437,540.88,538.585,0.0
52288.0,STARLINK-3776,PAYLOAD,2022-08-24 14:00:01,15.0881106,0.00016,53.2164,144.0953,59.4939,70.5265,0.0024739999999999,0.00039274,0.0,0 STARLINK-3776,1 52288U 22041AD  22236.58334491  .00039274  00000-0  24740-2 0  9990,2 52288  53.2164 144.0953 0001600  59.4939  70.5265 15.08811060  1309,6917.969,95.439,540.941,538.727,0.0
52288.0,STARLINK-3776,PAYLOAD,2022-08-24 16:00:00,15.08842503,0.0001781999999999,53.2173,143.7192,53.6293,169.3013,-0.00067836,-0.00011069,0.0,0 STARLINK-3776,1 52288U 22041AD  22236.66667824 -.00011069  00000-0 -67836-3 0  9996,2 52288  53.2173 143.7192 0001782  53.6293 169.3013 15.08842503 20529,6917.873000000001,95.437,540.971,538.505,0.0
52288.0,STARLINK-3776,PAYLOAD,2022-08-24 22:00:00,15.08836499,0.0001855,53.2175,142.5976,52.3537,89.273,1.6508e-05,-2.5e-07,0.0,0 STARLINK-3776,1 52288U 22041AD  22236.91667824 -.00000025  00000-0  16508-4 0  9994,2 52288  53.2175 142.5976 0001855  52.3537  89.2730 15.08836499  1304,6917.891,95.438,541.039,538.4730000000002,0.0
